******** Week 105 almanac for PRN-19 ********
ID:                         19
Health:                     000
Eccentricity:               0.9181022644E-002
Time of Applicability(s):  405504.0000
Orbital Inclination(rad):   0.9809950949
Rate of Right Ascen(r/s):  -0.7886042771E-008
SQRT(A)  (m 1/2):           5153.582520
Right Ascen at Week(rad):   0.2644918811E+001
Argument of Perigee(rad):   1.810186088
Mean Anom(rad):            -0.2757436077E+001
Af0(s):                    -0.1239776611E-004
Af1(s/s):                   0.3637978807E-011
week:                        105

******** Week 105 almanac for PRN-20 ********
ID:                         20
Health:                     000
Eccentricity:               0.6029129028E-002
Time of Applicability(s):  405504.0000
Orbital Inclination(rad):   0.9373725163
Rate of Right Ascen(r/s):  -0.8103194673E-008
SQRT(A)  (m 1/2):           5151.641602
Right Ascen at Week(rad):  -0.1793832489E+001
Argument of Perigee(rad):   3.020693920
Mean Anom(rad):            -0.1404645535E+001
Af0(s):                     0.5235671997E-003
Af1(s/s):                   0.0000000000E+000
week:                        105

******** Week 105 almanac for PRN-21 ********
ID:                         21
Health:                     000
Eccentricity:               0.2416229248E-001
Time of Applicability(s):  405504.0000
Orbital Inclination(rad):   0.9570386293
Rate of Right Ascen(r/s):  -0.7737465154E-008
SQRT(A)  (m 1/2):           5153.653809
Right Ascen at Week(rad):  -0.2769764100E+001
Argument of Perigee(rad):  -1.154123927
Mean Anom(rad):             0.1211541472E+001
Af0(s):                     0.1115798950E-003
Af1(s/s):                   0.3637978807E-011
week:                        105

******** Week 105 almanac for PRN-22 ********
ID:                         22
Health:                     000
Eccentricity:               0.7070541382E-002
Time of Applicability(s):  405504.0000
Orbital Inclination(rad):   0.9340528860
Rate of Right Ascen(r/s):  -0.8103194673E-008
SQRT(A)  (m 1/2):           5153.498047
Right Ascen at Week(rad):  -0.1747365904E+001
Argument of Perigee(rad):  -0.994835976
Mean Anom(rad):             0.4666057967E-001
Af0(s):                    -0.6370544434E-003
Af1(s/s):                   0.7275957614E-011
week:                        105

******** Week 105 almanac for PRN-23 ********
ID:                         23
Health:                     000
Eccentricity:               0.1101016998E-002
Time of Applicability(s):  405504.0000
Orbital Inclination(rad):   0.9633842764
Rate of Right Ascen(r/s):  -0.7863184676E-008
SQRT(A)  (m 1/2):           5153.594238
Right Ascen at Week(rad):  -0.1675490516E+001
Argument of Perigee(rad):   2.552366889
Mean Anom(rad):            -0.1531515034E+001
Af0(s):                     0.1134872437E-003
Af1(s/s):                  -0.3637978807E-011
week:                        105

******** Week 105 almanac for PRN-24 ********
ID:                         24
Health:                     063
Eccentricity:               0.1103162766E-001
Time of Applicability(s):  405504.0000
Orbital Inclination(rad):   0.9356407958
Rate of Right Ascen(r/s):  -0.7931758961E-008
SQRT(A)  (m 1/2):           5153.686523
Right Ascen at Week(rad):   0.3756829804E+000
Argument of Perigee(rad):   0.738847314
Mean Anom(rad):            -0.7948421071E+000
Af0(s):                    -0.9536743164E-006
Af1(s/s):                   0.0000000000E+000
week:                        105

******** Week 105 almanac for PRN-25 ********
ID:                         25
Health:                     000
Eccentricity:               0.9927749634E-002
Time of Applicability(s):  405504.0000
Orbital Inclination(rad):   0.9612211238
Rate of Right Ascen(r/s):  -0.8046049436E-008
SQRT(A)  (m 1/2):           5153.592773
Right Ascen at Week(rad):   0.1490487414E+001
Argument of Perigee(rad):   0.963743653
Mean Anom(rad):            -0.2796010676E+001
Af0(s):                     0.1192092896E-003
Af1(s/s):                   0.7275957614E-011
week:                        105

******** Week 105 almanac for PRN-26 ********
ID:                         26
Health:                     000
Eccentricity:               0.5784988403E-002
Time of Applicability(s):  405504.0000
Orbital Inclination(rad):   0.9421841826
Rate of Right Ascen(r/s):  -0.8217485148E-008
SQRT(A)  (m 1/2):           5153.735352
Right Ascen at Week(rad):   0.1449164683E+001
Argument of Perigee(rad):   0.304171987
Mean Anom(rad):             0.2799393972E+001
Af0(s):                     0.7247924805E-004
Af1(s/s):                   0.3637978807E-011
week:                        105

******** Week 105 almanac for PRN-27 ********
ID:                         27
Health:                     000
Eccentricity:               0.9372234344E-002
Time of Applicability(s):  405504.0000
Orbital Inclination(rad):   0.9762613261
Rate of Right Ascen(r/s):  -0.7977475151E-008
SQRT(A)  (m 1/2):           5153.632324
Right Ascen at Week(rad):   0.2539281239E+001
Argument of Perigee(rad):   0.606121274
Mean Anom(rad):             0.1017355832E+001
Af0(s):                    -0.1134872437E-003
Af1(s/s):                  -0.7275957614E-011
week:                        105

******** Week 105 almanac for PRN-28 ********
ID:                         28
Health:                     000
Eccentricity:               0.1748132706E-001
Time of Applicability(s):  405504.0000
Orbital Inclination(rad):   0.9730195932
Rate of Right Ascen(r/s):  -0.7966046104E-008
SQRT(A)  (m 1/2):           5154.265137
Right Ascen at Week(rad):   0.1585843645E+001
Argument of Perigee(rad):  -1.340896574
Mean Anom(rad):             0.1741738936E+001
Af0(s):                     0.5865097046E-003
Af1(s/s):                  -0.7275957614E-011
week:                        105

******** Week 105 almanac for PRN-29 ********
ID:                         29
Health:                     000
Eccentricity:               0.1722812653E-002
Time of Applicability(s):  405504.0000
Orbital Inclination(rad):   0.9843207173
Rate of Right Ascen(r/s):  -0.7886042771E-008
SQRT(A)  (m 1/2):           5153.609375
Right Ascen at Week(rad):   0.2612099262E+001
Argument of Perigee(rad):   2.114968147
Mean Anom(rad):             0.1200117509E+001
Af0(s):                    -0.3309249878E-003
Af1(s/s):                  -0.7275957614E-011
week:                        105

******** Week 105 almanac for PRN-30 ********
ID:                         30
Health:                     000
Eccentricity:               0.5090236664E-002
Time of Applicability(s):  405504.0000
Orbital Inclination(rad):   0.9374504137
Rate of Right Ascen(r/s):  -0.7874613724E-008
SQRT(A)  (m 1/2):           5153.670898
Right Ascen at Week(rad):   0.4710208600E+000
Argument of Perigee(rad):  -2.812278137
Mean Anom(rad):            -0.1870152528E+001
Af0(s):                    -0.4129409790E-003
Af1(s/s):                  -0.3637978807E-011
week:                        105

******** Week 105 almanac for PRN-31 ********
ID:                         31
Health:                     000
Eccentricity:               0.9937763214E-002
Time of Applicability(s):  405504.0000
Orbital Inclination(rad):   0.9565532682
Rate of Right Ascen(r/s):  -0.7691748964E-008
SQRT(A)  (m 1/2):           5153.724609
Right Ascen at Week(rad):   0.4701115570E+000
Argument of Perigee(rad):   0.258302366
Mean Anom(rad):            -0.2289453218E+001
Af0(s):                    -0.1115798950E-003
Af1(s/s):                  -0.3637978807E-011
week:                        105

******** Week 105 almanac for PRN-32 ********
ID:                         32
Health:                     000
Eccentricity:               0.4858016968E-002
Time of Applicability(s):  405504.0000
Orbital Inclination(rad):   0.9572843059
Rate of Right Ascen(r/s):  -0.7943188009E-008
SQRT(A)  (m 1/2):           5153.600098
Right Ascen at Week(rad):  -0.6091922321E+000
Argument of Perigee(rad):  -2.386994697
Mean Anom(rad):             0.1759609288E+001
Af0(s):                     0.2193450928E-004
Af1(s/s):                   0.0000000000E+000
week:                        105